ONEWEB-0427             
1 50499U 21132AG  25316.19330409 -.00000137  00000+0 -37939-3 0  9998
2 50499  87.9220  18.5299 0001621  96.0094 264.1223 13.18686104193011
ONEWEB-0429             
1 50500U 21132AH  25316.18011674  .00000069  00000+0  14315-3 0  9995
2 50500  87.9220  18.5639 0001949 100.5295 259.6057 13.18688326192986
ONEWEB-0430             
1 50501U 21132AJ  25316.16856729  .00000037  00000+0  59941-4 0  9992
2 50501  87.9229  18.5619 0002439 102.4582 257.6823 13.18688202193027
ONEWEB-0432             
1 50502U 21132AK  25316.20025036  .00000016  00000+0  83383-5 0  9992
2 50502  87.9215  18.5285 0001498  68.1760 291.9532 13.18673668192984
ONEWEB-0440             
1 50503U 21132AL  25316.18836945  .00000098  00000+0  21561-3 0  9997
2 50503  87.9218  18.5475 0001959 111.3563 248.7778 13.18687945192977
ONEWEB-0450             
1 50504U 21132AM  25316.18191315  .00000009  00000+0 -10623-4 0  9994
2 50504  87.9216  18.5720 0002100  99.3050 260.8320 13.18685559193006
ONEWEB-0410             
1 51622U 22012A   25316.26762951  .00000039  00000+0  66498-4 0  9996
2 51622  87.9139  48.9756 0000232 104.4911 255.6247 13.17651848185134
ONEWEB-0411             
1 51623U 22012B   25316.31041507 -.00000291  00000+0 -86923-3 0  9996
2 51623  87.8794  79.4994 0001954  87.2980 272.8371 13.10375833180886
